PROBA-1                 
1 26958U 01049B   26167.87116302  .00001152  00000+0  77829-4 0  9999
2 26958  97.9595 176.3922 0056446 122.8667 237.8011 15.07492899343571
CUTE-1 (CO-55)          
1 27844U 03031E   26167.82643209  .00000230  00000+0  11849-3 0  9998
2 27844  98.6736 176.3898 0009511 179.0123 181.1076 14.24335514191622
CUBESAT XI-IV (CO-57)   
1 27848U 03031J   26167.74442547  .00000195  00000+0  10473-3 0  9997
2 27848  98.6766 176.0218 0008995 198.3693 161.7162 14.23620607191318
APRIZESAT 4             
1 35684U 09041D   26167.71759211  .00000555  00000+0  72963-4 0  9990
2 35684  98.1413 243.0288 0042436 324.6081  35.2317 14.83878811911296
APRIZESAT 3             
1 35686U 09041F   26167.43022316  .00001528  00000+0  13601-3 0  9994
2 35686  98.2059 320.6177 0062776  70.1926 290.6047 14.96239329916262
PROBA-2                 
1 36037U 09059B   26167.75904436  .00000139  00000+0  43007-4 0  9992
2 36037  98.2449 351.1177 0011974 283.6370  76.3493 14.54862281881463
APRIZESAT 5             
1 37792U 11044E   26167.73700514  .00000935  00000+0  12528-3 0  9994
2 37792  98.2453 100.7646 0052379   5.7788 354.4017 14.81075197798726
APRIZESAT 6             
1 37793U 11044F   26167.73922101  .00000622  00000+0  94864-4 0  9990
2 37793  98.2364  78.2297 0044499  87.4280 328.0393 14.76915295797085
PROBA-V                 
1 39159U 13021A   26167.69744705  .00000040  00000+0  35436-4 0  9996
2 39159  98.3584 146.3283 0005117 124.6070 235.5592 14.23596844681043
APRIZESAT 7             
1 39416U 13066A   26167.61727596  .00001051  00000+0  10935-3 0  9991
2 39416  97.7709 120.8454 0034954 211.2066 148.7077 14.91562845681140
APRIZESAT 8             
1 39425U 13066K   26167.73788154  .00000792  00000+0  91808-4 0  9991
2 39425  97.8220 115.2119 0044448 288.1032  71.5346 14.87651979679602
BUGSAT-1 (TITA)         
1 40014U 14033E   26167.83816231  .00004100  00000+0  21794-3 0  9994
2 40014  98.0435 260.3661 0027976 179.3031 180.8243 15.15582513655782
SAUDISAT 4              
1 40016U 14033G   26167.84833953  .00000548  00000+0  78804-4 0  9994
2 40016  97.7582 313.9946 0046172  75.0624 285.5693 14.79544450646029
APRIZESAT 9             
1 40018U 14033J   26167.32523743  .00000594  00000+0  94736-4 0  9995
2 40018  97.9059 300.5449 0065622 201.9666 157.8728 14.74213513643439
APRIZESAT 10            
1 40019U 14033K   26167.85454138  .00000350  00000+0  63108-4 0  9994
2 40019  97.9650 294.8213 0077387 274.9294  84.3081 14.70882190642208
TECHDEMOSAT-1 (TDS-1)   
1 40076U 14037H   26167.56341273  .00005977  00000+0  34011-3 0  9994
2 40076  98.3811 159.7144 0004448 268.5104  91.5615 15.13285695648130
TECHNOSAT               
1 42829U 17042E   26167.38491289  .00003441  00000+0  24603-3 0  9994
2 42829  97.4282 325.0727 0018897  96.7321 263.6058 15.04956757486586
FLYING LAPTOP           
1 42831U 17042G   26167.85223575  .00003612  00000+0  28529-3 0  9991
2 42831  97.4683 323.3978 0019517 122.5784 237.7328 15.01145830486406
HAWK-A                  
1 43765U 18099H   26167.69179898  .00005223  00000+0  21136-3 0  9998
2 43765  97.3911 219.9343 0033115 287.7398  72.0227 15.24637919413022
HAWK-B                  
1 43794U 18099AN  26167.71274706  .00004557  00000+0  19547-3 0  9999
2 43794  97.3960 219.3710 0030525 306.7094  53.1339 15.22821212412962
HAWK-C                  
1 43799U 18099AT  26167.60397946  .00006004  00000+0  21715-3 0  9993
2 43799  97.3888 220.7569 0038780 287.9452  71.7562 15.28096428413822
SALSAT                  
1 46495U 20068K   26167.75305926  .00006424  00000+0  22536-3 0  9999
2 46495  97.8846 170.7912 0008036 309.8779  50.1753 15.29794360315296
HAWK-2C                 
1 47502U 21006CT  26167.69584752  .00005348  00000+0  16148-3 0  9997
2 47502  97.2274 212.0155 0006641 187.3675 172.7472 15.34658689299422
HAWK-2A                 
1 47505U 21006CW  26167.69834477  .00005308  00000+0  16022-3 0  9999
2 47505  97.2315 212.6955 0006058 190.5285 169.5833 15.34673383299423
HAWK-2B                 
1 47508U 21006CZ  26167.69390841  .00005992  00000+0  18004-3 0  9995
2 47508  97.2186 211.0237 0006640 188.7968 171.3161 15.34761109299421
HAWK-3B                 
1 48931U 21059BE  26167.81422330  .00035276  00000+0  30006-3 0  9991
2 48931  97.6651   4.4867 0003233 333.3550  26.7545 15.69525953277794
HAWK-3C                 
1 48948U 21059BX  26167.81389955  .00035103  00000+0  29855-3 0  9993
2 48948  97.6774  10.1715 0003594 334.3227  25.7855 15.69529236277797
HAWK-3A                 
1 48957U 21059CG  26167.55874706  .00036241  00000+0  30813-3 0  9997
2 48957  97.6715   7.0977 0003604 337.3917  22.7185 15.69530198277756
HAWK-5C                 
1 52754U 22057Y   26167.72161257  .00015288  00000+0  26131-3 0  9991
2 52754  97.6598 327.3579 0005028  84.3643 275.8182 15.51377602226277
HAWK-5B                 
1 52756U 22057AA  26167.39895597  .00015956  00000+0  27264-3 0  9997
2 52756  97.6606 325.3635 0005728  78.3980 281.7915 15.51371165226227
HAWK-5A                 
1 52757U 22057AB  26167.72125260  .00015609  00000+0  26671-3 0  9994
2 52757  97.6606 326.5382 0005616  80.2712 279.9173 15.51377076226278
